KUIPER-00234            
1 68581U 26072J   26099.50001904  .00019781  00000+0  52514-3 0  9995
2 68581  51.8748 149.0639 0002315  89.0364 271.0888 15.38279753   819
